OPTICUBE 04             
1 41851U 16067D   19142.27181804  .00000255  00000-0  27556-4 0  9998
2 41851  97.9140 239.5548 0010279 114.3388 245.8907 14.96794227137810
AEROCUBE 8D             
1 41852U 16067E   19142.27286421  .00000405  00000-0  40761-4 0  9990
2 41852  97.9152 239.3810 0011107 114.6492 245.5887 14.96697651137798
AEROCUBE 8C             
1 41853U 16067F   19142.49569061  .00000393  00000-0  39720-4 0  9998
2 41853  97.9160 239.5452 0011609 113.5557 246.6885 14.96668431137827
PROMETHEUS 2-1          
1 41854U 16067G   19142.26636471  .00000298  00000-0  31288-4 0  9999
2 41854  97.9156 239.4350 0011632 115.7230 244.5193 14.96869729137795
PROMETHEUS 2-3          
1 41855U 16067H   19142.46933710  .00000378  00000-0  38190-4 0  9996
2 41855  97.9160 239.6551 0011896 115.4515 244.7939 14.96874768137824
INS-1B                  
1 41954U 17008G   19142.24559059  .00000883  00000-0  39493-4 0  9996
2 41954  97.4014 207.6459 0007792 235.7906 124.2594 15.23879138125620
BGUSAT                  
1 41999U 17008BD  19142.85840966  .00001482  00000-0  60461-4 0  9997
2 41999  97.4084 210.5043 0006501 248.7112 111.3433 15.26007449125202
DIDO-2                  
1 42000U 17008BE  19142.23399514  .00000631  00000-0  29117-4 0  9999
2 42000  97.4027 208.1776 0006864 258.5150 101.5316 15.23848728125023
PEASSS                  
1 42015U 17008BV  19142.41182202  .00000783  00000-0  34459-4 0  9992
2 42015  97.4034 209.2666 0004697 263.8484  96.2218 15.24800100125594
AL-FARABI 1             
1 42016U 17008BW  19142.22503169  .00000997  00000-0  42308-4 0  9990
2 42016  97.4049 209.5906 0004540 263.4005  96.6716 15.25417004125712
NAYIF-1 (EO-88)         
1 42017U 17008BX  19142.40992689  .00001016  00000-0  43010-4 0  9994
2 42017  97.4045 209.7833 0004525 262.6791  97.3932 15.25449674125767
PHOENIX                 
1 42706U 98067LP  19128.42254485  .08245211  12410-4  57150-3 0  9990
2 42706  51.5998 109.6560 0003143 270.9046 228.4560 16.40380041113340
ALTAIR PATHFINDER       
1 42711U 98067LS  19142.33273636  .00024847  00000-0  14033-3 0  9994
2 42711  51.6350  71.4976 0003682  59.5411 300.5953 15.78981130114762
SHARC                   
1 42712U 98067LT  19123.64217769  .08981558  12375-4  84912-3 0  9997
2 42712  51.6192 152.4129 0003348 312.8737 146.7300 16.37776182112255
ZA-AEROSAT              
1 42713U 98067LU  19142.45451380  .00468062  12635-3  41384-3 0  9993
2 42713  51.6235  43.3224 0004543 224.6885 135.3764 16.12334785115141
NJUST-1                 
1 42722U 98067MB  19142.75989773  .00104818  15442-4  28432-3 0  9993
2 42722  51.6345  51.4258 0004940 107.3095 348.0201 15.94096980114139
NSIGHT                  
1 42726U 98067MF  19142.29178846  .00013342  00000-0  11150-3 0  9997
2 42726  51.6369  88.7600 0006139  71.7556 288.4110 15.70374719113511
BEEAGLESAT              
1 42736U 98067MR  19116.58349394  .05344197  12378-4  56382-3 0  9990
2 42736  51.6116 172.4218 0006034 335.7210 140.8917 16.36759636110007
UCLSAT                  
1 42765U 17036A   19142.85692343  .00000784  00000-0  36584-4 0  9997
2 42765  97.3530 201.4379 0010496 332.1294  27.9379 15.22682054106383
LITUANICASAT-2          
1 42768U 17036D   19142.11338826  .00001459  00000-0  65485-4 0  9994
2 42768  97.3565 200.2977 0013874 322.3578  37.6687 15.22689580106116
AALTO-1                 
1 42775U 17036L   19142.16857591  .00000555  00000-0  27850-4 0  9992
2 42775  97.3517 199.5763 0012862 322.6713  37.3629 15.21294327106027
URSA MAIOR              
1 42776U 17036M   19142.72362041  .00000591  00000-0  29344-4 0  9996
2 42776  97.3526 200.2572 0012629 320.6103  39.4213 15.21423690106117
COMPASS 2               
1 42777U 17036N   19142.26502793  .00001083  00000-0  49242-4 0  9992
2 42777  97.3563 200.9026 0011372 324.3435  35.7041 15.22805671106092
DIAMOND RED             
1 42783U 17036U   19142.10382290  .00000722  00000-0  34469-4 0  9994
2 42783  97.3532 200.3252 0011275 335.4126  24.6571 15.22144815106059
PEGASUS                 
1 42784U 17036V   19142.21959300  .00000754  00000-0  35554-4 0  9990
2 42784  97.3536 200.6443 0011149 334.5437  25.5249 15.22430711106082
DIAMOND GREEN           
1 42785U 17036W   19142.10264763  .00000734  00000-0  34996-4 0  9998
2 42785  97.3535 200.3473 0011194 336.1485  23.9232 15.22145492106042
DIAMOND BLUE            
1 42786U 17036X   19142.10169237  .00000716  00000-0  34199-4 0  9994
2 42786  97.3534 200.3449 0011046 336.5046  23.5685 15.22143207106127
NUDTSAT                 
1 42787U 17036Y   19142.56295855  .00001961  00000-0  85342-4 0  9990
2 42787  97.3563 201.6095 0012088 331.8865  28.1726 15.23366341106017
SUCHAI                  
1 42788U 17036Z   19142.16835880  .00000982  00000-0  44878-4 0  9996
2 42788  97.3540 200.8741 0010692 334.2582  25.8121 15.22834560106165
SKCUBE                  
1 42789U 17036AA  19142.37951042  .00000847  00000-0  39255-4 0  9992
2 42789  97.3536 201.0294 0010544 333.7038  26.3662 15.22739298106116
VZLUSAT-1               
1 42790U 17036AB  19142.28704221  .00001112  00000-0  49701-4 0  9992
2 42790  97.3550 201.3455 0010075 333.4896  26.5824 15.23364266106127
ROBUSTA-1B              
1 42792U 17036AD  19142.37902853  .00000863  00000-0  39735-4 0  9993
2 42792  97.3536 201.1690 0010143 334.8386  25.2355 15.22902589106138
CICERO 6                
1 42793U 17036AE  19142.23473239  .00000606  00000-0  29115-4 0  9996
2 42793  97.3521 200.8370 0009485 337.8211  22.2614 15.22524937106177
D-SAT                   
1 42794U 17036AF  19142.36074095  .00000108  00000-0  14983-4 0  9992
2 42794  97.5420 188.2624 0125384 232.3039 126.6759 14.91079802104261
TOKI                    
1 42820U 98067MU  19123.10626650  .20777511  12651-4  37226-3 0  9990
2 42820  51.6051 142.7539 0005305 301.2009  59.2873 16.47402492104441
MAZAALAI (NUMSAT-1)     
1 42822U 98067MW  19131.43194823  .10190864  12355-4  76666-3 0  9990
2 42822  51.6054 100.7046 0005179 246.5694 204.7401 16.39672911105736
BRAC ONNESHA            
1 42823U 98067MX  19126.46325411  .10871672  12483-4  53364-3 0  9992
2 42823  51.6136 126.1830 0002073 268.7751  91.3478 16.43067843104944
NIGERIAEDUSAT-1         
1 42824U 98067MY  19133.12526632  .12220275  12529-4  51637-3 0  9993
2 42824  51.6091  92.5367 0003545 299.4874 174.6355 16.43636834105973
CORVUS BC2              
1 42846U 17042X   19142.24865146  .00000281  00000-0  32988-4 0  9996
2 42846  97.5688  37.3406 0010547 139.3195 220.8814 14.91962896100922
CORVUS BC1              
1 42847U 17042Y   19142.53904434  .00000116  00000-0  16646-4 0  9993
2 42847  97.5687  37.7214 0010205 137.7742 222.4265 14.92063283100969
MIRATA                  
1 43015U 17073C   19142.35060314  .00000443  00000-0  40738-4 0  9997
2 43015  97.7199  64.6291 0254093 246.7942 110.6326 14.78937367 81252
MAKERSAT 0              
1 43016U 17073D   19142.29264743  .00000297  00000-0  29245-4 0  9990
2 43016  97.7233  64.7700 0256229 247.2872 110.1073 14.78704269 81245
ASTERIA                 
1 43020U 98067NH  19142.36361380  .00011010  00000-0  96288-4 0  9996
2 43020  51.6426  99.1748 0003071  42.6581 317.4654 15.69502986 85565
DELLINGR (RBLE)         
1 43021U 98067NJ  19142.47242245  .00005123  00000-0  61777-4 0  9990
2 43021  51.6380 109.5530 0002749  21.8085 338.3026 15.62714856 85434
AEROCUBE 7B (OCSD B)    
1 43042U 17071F   19142.52844523  .00001917  00000-0  55425-4 0  9992
2 43042  51.6371 185.7045 0005122  56.3960 303.7513 15.41037758 81896
AEROCUBE 7C (OCSD C)    
1 43043U 17071G   19142.52853616  .00001799  00000-0  52599-4 0  9993
2 43043  51.6372 185.7187 0005345  60.3182 299.8334 15.41043281 81864
CHEFSAT                 
1 43044U 17071H   19142.37010132  .00003255  00000-0  80388-4 0  9991
2 43044  51.6370 181.7667 0005139  56.2386 303.9089 15.43585940 81907
ASGARDIA 1              
1 43049U 17071N   19142.54756960  .00001507  00000-0  45442-4 0  9991
2 43049  51.6380 185.1220 0002841  75.9579 284.1722 15.41173423 81872
ISARA                   
1 43050U 17071P   19142.57127617  .00003041  00000-0  76927-4 0  9994
2 43050  51.6364 181.5722 0002669  68.2156 291.9113 15.43085473 81911
PROPCUBE 2 (FAUNA)      
1 43052U 17071R   19142.49324114  .00001546  00000-0  45983-4 0  9994
2 43052  51.6377 184.7766 0002776  72.2494 287.8794 15.41440107 81869
CORVUS BC3              
1 43118U 18004H   19142.40195658  .00000522  00000-0  25369-4 0  9993
2 43118  97.4880 209.8466 0010190 357.2508   2.8671 15.22801779 75324
MICROMAS-2A             
1 43131U 18004W   19142.43059787  .00001269  00000-0  55296-4 0  9994
2 43131  97.4904 210.5013 0009175   0.1606 359.9632 15.24026026 75360
CICERO 7                
1 43143U 18004AJ  19142.25959814  .00001072  00000-0  47005-4 0  9998
2 43143  97.4892 210.5436 0007677  12.7763 347.3667 15.24174451 75350
GOMX-4B                 
1 43196U 18015E   19142.58572354  .00000364  00000-0  17918-4 0  9997
2 43196  97.3846 270.5150 0020242  44.5896 315.6965 15.23921937 72217
GOMX-4A                 
1 43197U 18015F   19142.71993045  .00000423  00000-0  20306-4 0  9998
2 43197  97.3880 270.6711 0020598  46.3360  60.9264 15.24014257 72244
1KUNS-PF                
1 43466U 98067NP  19142.34140658  .00012525  00000-0  12886-3 0  9994
2 43466  51.6369 113.1573 0002077  46.9927 313.1242 15.65288587 58632
UBAKUSAT                
1 43467U 98067NQ  19142.55065301  .00007711  00000-0  91521-4 0  9994
2 43467  51.6368 115.3020 0002554 357.5191   2.5790 15.62275199 58636
BATSU-CS1 (IRAZU)       
1 43468U 98067NR  19142.37684800  .00016787  00000-0  15462-3 0  9998
2 43468  51.6362 110.3773 0002393  52.7324 307.3890 15.67775559158665
CUBERRT                 
1 43546U 98067NU  19142.42073411  .00010893  00000-0  12128-3 0  9999
2 43546  51.6375 117.4302 0006416  35.3173 324.8245 15.63418296 48722
